      2.10          N: GNSS NAV DATA                        RINEX VERSION / TYPE
fic2rin                                 06/13/2024 00:59:01 PGM / RUN BY / DATE
                                                            END OF HEADER
5  24  6 12  2  0  0.0 -.176005065441D-03 -.136424205266D-11  .000000000000D+00
     .130000000000D+02 -.343437500000D+02  .444804242168D-08 -.290769824919D+01
    -.204704701900D-05  .590552703943D-02  .353902578354D-05  .515362939644D+04
     .266400000000D+06  .162050127983D-06  .277016674143D+01 -.502914190292D-07
     .971837374916D+00  .315562500000D+03  .126211180091D+01 -.811998108695D-08
     .102504269714D-09  .100000000000D+01  .231800000000D+04  .000000000000D+00
     .240000000000D+01  .000000000000D+00 -.107102096081D-07  .130000000000D+02
     .259200000000D+06  .400000000000D+01
4  24  6 12  2  0  0.0  .381275080144D-03  .807176547823D-11  .000000000000D+00
     .160000000000D+02 -.857187500000D+02  .444054210926D-08  .267585055496D+01
    -.434927642345D-05  .283784745261D-02  .852346420288D-05  .515374464607D+04
     .266400000000D+06 -.428408384323D-07 -.238346082256D+01 -.931322574615D-08
     .965079195171D+00  .220468750000D+03 -.295165403377D+01 -.791175812791D-08
     .357157734196D-10  .100000000000D+01  .231800000000D+04  .000000000000D+00
     .240000000000D+01  .000000000000D+00 -.465661287308D-08  .160000000000D+02
     .259200000000D+06  .400000000000D+01
2  24  6 12  2  0  0.0 -.419374089688D-03  .704858393874D-11  .000000000000D+00
     .650000000000D+02  .782187500000D+02  .414660129402D-08 -.305052103947D+01
     .392273068428D-05  .159890621435D-01  .664032995701D-05  .515370453262D+04
     .266400000000D+06  .173225998878D-06  .168655299383D+01  .195577740669D-06
     .967129688445D+00  .248187500000D+03 -.117636998650D+01 -.777139513837D-08
     .224295057075D-09  .100000000000D+01  .231800000000D+04  .000000000000D+00
     .240000000000D+01  .000000000000D+00 -.176951289177D-07  .650000000000D+02
     .259200000000D+06  .400000000000D+01
1  24  6 12  2  0  0.0  .261005945504D-03 -.602540239925D-11  .000000000000D+00
     .630000000000D+02  .127812500000D+02  .597846331271D-08 -.183172736787D+01
     .698491930962D-06  .133736062562D-01  .641681253910D-05  .515376197624D+04
     .266400000000D+06  .262632966042D-06 -.307461577569D+00 -.968575477600D-07
     .954549312719D+00  .252093750000D+03  .103099082733D+01 -.791604402072D-08
    -.222152110670D-09  .100000000000D+01  .231800000000D+04  .000000000000D+00
     .340000000000D+01  .630000000000D+02 -.195577740669D-07  .630000000000D+02
     .259200000000D+06  .400000000000D+01
3  24  6 12  2  0  0.0  .409252941608D-03  .179625203600D-10  .000000000000D+00
     .860000000000D+02 -.301875000000D+02  .428446417942D-08 -.306315733817D+00
    -.156275928020D-05  .558746652678D-02  .397115945816D-05  .515371121407D+04
     .266400000000D+06 -.782310962677D-07  .282170064062D+01  .819563865662D-07
     .984908768855D+00  .321250000000D+03  .109758369362D+01 -.816748306560D-08
     .792890169915D-10  .100000000000D+01  .231800000000D+04  .000000000000D+00
     .340000000000D+01  .000000000000D+00  .139698386192D-08  .860000000000D+02
     .259200000000D+06  .400000000000D+01
25 24  6 12  5 59 44.0  .497219618410D-03  .568434188608D-12  .000000000000D+00
     .100000000000D+02  .165312500000D+02  .507842582253D-08  .148664858399D+01
     .668689608574D-06  .116142194020D-01  .649690628052D-05  .515377441597D+04
     .280784000000D+06 -.309199094772D-06 -.341656876592D+00 -.465661287308D-07
     .950436097638D+00  .251281250000D+03  .108930368994D+01 -.832998983466D-08
    -.181793286706D-09  .100000000000D+01  .231800000000D+04  .000000000000D+00
     .240000000000D+01  .000000000000D+00  .512227416039D-08  .100000000000D+02
     .275940000000D+06  .400000000000D+01
22 24  6 12  5 59 44.0 -.261873938143D-04 -.500222085975D-11  .000000000000D+00
     .000000000000D+00  .138125000000D+02  .489877548223D-08 -.655898535252D+00
     .806525349617D-06  .142677418189D-01  .655092298985D-05  .515369582558D+04
     .280784000000D+06 -.154599547386D-06 -.233806449377D+00 -.745058059692D-07
     .961340747518D+00  .255187500000D+03 -.113425107843D+01 -.838927801853D-08
    -.151792037033D-09  .100000000000D+01  .231800000000D+04  .000000000000D+00
     .240000000000D+01  .000000000000D+00 -.111758708954D-07  .000000000000D+00
     .279960000000D+06  .400000000000D+01
3  24  6 12  7 59 44.0  .409639440477D-03  .179625203600D-10  .000000000000D+00
     .600000000000D+01 -.360937500000D+02  .391052003171D-08  .284160633725D+01
    -.186078250408D-05  .558808678761D-02  .387057662010D-05  .515371403313D+04
     .287984000000D+06  .987201929092D-07  .282152592870D+01 -.372529029846D-07
     .984912178917D+00  .317531250000D+03  .109778996507D+01 -.786889919981D-08
     .114647632677D-09  .100000000000D+01  .231800000000D+04  .000000000000D+00
     .240000000000D+01  .000000000000D+00  .139698386192D-08  .600000000000D+01
     .280800000000D+06  .400000000000D+01
22 24  6 12  7 59 44.0 -.262232497334D-04 -.500222085975D-11  .000000000000D+00
     .130000000000D+02  .117187500000D+02  .496270671665D-08  .394268030617D+00
     .542029738426D-06  .142680016579D-01  .678747892380D-05  .515369630241D+04
     .287984000000D+06 -.987201929092D-07 -.233866604569D+00 -.150874257088D-06
     .961339346042D+00  .254437500000D+03 -.113424752208D+01 -.840606443204D-08
    -.216794744657D-09  .100000000000D+01  .231800000000D+04  .000000000000D+00
     .240000000000D+01  .000000000000D+00 -.111758708954D-07  .130000000000D+02
     .280800000000D+06  .400000000000D+01
25 24  6 12  7 59 44.0  .497223809361D-03  .568434188608D-12  .000000000000D+00
     .270000000000D+02  .186250000000D+02  .499627954367D-08  .253680225863D+01
     .728294253349D-06  .116142521147D-01  .624544918537D-05  .515377379227D+04
     .287984000000D+06  .372529029846D-08 -.341715772211D+00 -.176951289177D-06
     .950436350723D+00  .249031250000D+03  .108927348214D+01 -.801711965950D-08
    -.148577617426D-09  .100000000000D+01  .231800000000D+04  .000000000000D+00
     .240000000000D+01  .000000000000D+00  .512227416039D-08  .270000000000D+02
     .280800000000D+06  .400000000000D+01
2  24  6 12  8  0  0.0 -.419222284108D-03  .704858393874D-11  .000000000000D+00
     .710000000000D+02  .548750000000D+02  .421803284086D-08  .997948805145D-01
     .289268791676D-05  .159884388559D-01  .687316060066D-05  .515369875145D+04
     .288000000000D+06 -.176951289177D-06  .168638056845D+01 -.288709998131D-06
     .967132096408D+00  .256968750000D+03 -.117620280861D+01 -.822748556494D-08
    -.521450291926D-10  .100000000000D+01  .231800000000D+04  .000000000000D+00
     .240000000000D+01  .000000000000D+00 -.176951289177D-07  .710000000000D+02
     .280800000000D+06  .400000000000D+01
1  24  6 12  8  0  0.0  .260876491666D-03 -.602540239925D-11  .000000000000D+00
     .750000000000D+02  .148750000000D+02  .638598028743D-08  .131872527205D+01
     .795349478722D-06  .133740082383D-01  .661797821522D-05  .515376311493D+04
     .288000000000D+06 -.305473804474D-06 -.307642204064D+00  .931322574615D-07
     .954540963845D+00  .253000000000D+03  .103095512189D+01 -.839892127736D-08
    -.179650340301D-09  .100000000000D+01  .231800000000D+04  .000000000000D+00
     .485000000000D+01  .630000000000D+02 -.195577740669D-07  .750000000000D+02
     .280800000000D+06  .400000000000D+01
4  24  6 12  8  0  0.0  .381450634450D-03  .807176547823D-11  .000000000000D+00
     .190000000000D+02 -.683125000000D+02  .433518057767D-08 -.457126159219D+00
    -.349432229996D-05  .283802254125D-02  .854209065437D-05  .515374119186D+04
     .288000000000D+06  .316649675369D-07 -.238363278566D+01  .260770320892D-07
     .965081126223D+00  .214625000000D+03 -.295144859179D+01 -.794675958586D-08
     .152149194768D-09  .100000000000D+01  .231800000000D+04  .000000000000D+00
     .240000000000D+01  .000000000000D+00 -.465661287308D-08  .190000000000D+02
     .280800000000D+06  .400000000000D+01
5  24  6 12  8  0  0.0 -.176033936441D-03 -.136424205266D-11  .000000000000D+00
     .420000000000D+02 -.200625000000D+02  .430767943214D-08  .242599271679D+00
    -.948086380959D-06  .590612692758D-02  .377371907234D-05  .515362510490D+04
     .288000000000D+06 -.178813934326D-06  .276999007506D+01  .130385160446D-07
     .971840322696D+00  .313781250000D+03  .126243964671D+01 -.823534303509D-08
     .101075638777D-09  .100000000000D+01  .231800000000D+04  .000000000000D+00
     .240000000000D+01  .000000000000D+00 -.107102096081D-07  .420000000000D+02
     .280800000000D+06  .400000000000D+01
